{
  "type": "FeatureCollection",
  "features": [
    {
      "type": "Feature",
      "properties": {
        "norad_id": 38474,
        "name": "IRIDIUM 33 DEB",
        "group": "iridium-33-debris",
        "lat": -71.91568829472916,
        "lon": 0.5129039233409818,
        "alt_km": 750.6700545770973,
        "timestamp": "2025-12-08T17:43:05.322413+00:00",
        "meta_object_name": "IRIDIUM 33 DEB",
        "meta_object_id": "1997-051AAB",
        "meta_epoch": "2025-12-08T08:07:09.463872",
        "meta_mean_motion": 14.50663948,
        "meta_eccentricity": 0.00281226,
        "meta_inclination": 86.3436,
        "meta_ra_of_asc_node": 11.9798,
        "meta_arg_of_pericenter": 101.673,
        "meta_mean_anomaly": 258.7634,
        "meta_ephemeris_type": 0,
        "meta_classification_type": "U",
        "meta_norad_cat_id": 38474,
        "meta_element_set_no": 999,
        "meta_rev_at_epoch": 65254,
        "meta_bstar": 0.0008115799,
        "meta_mean_motion_dot": 3.222e-05,
        "meta_mean_motion_ddot": 0,
        "tle_line1": "1 38474U 97051AAB 25342.33830398  .00003222  00000+0  81158-3 0  9995",
        "tle_line2": "2 38474  86.3436  11.9798 0028122 101.6730 258.7634 14.50663948652549"
      },
      "geometry": {
        "type": "Point",
        "coordinates": [
          0.5129039233409818,
          -71.91568829472916
        ]
      }
    },
    {
      "type": "Feature",
      "properties": {
        "norad_id": 39777,
        "name": "IRIDIUM 33 DEB",
        "group": "iridium-33-debris",
        "lat": -72.71719227105271,
        "lon": 10.1078760292838,
        "alt_km": 686.8335907285782,
        "timestamp": "2025-12-08T17:43:05.322423+00:00",
        "meta_object_name": "IRIDIUM 33 DEB",
        "meta_object_id": "1997-051AAJ",
        "meta_epoch": "2025-12-08T06:39:56.822400",
        "meta_mean_motion": 14.56263491,
        "meta_eccentricity": 0.00598353,
        "meta_inclination": 85.962,
        "meta_ra_of_asc_node": 177.2086,
        "meta_arg_of_pericenter": 201.8798,
        "meta_mean_anomaly": 157.9853,
        "meta_ephemeris_type": 0,
        "meta_classification_type": "U",
        "meta_norad_cat_id": 39777,
        "meta_element_set_no": 999,
        "meta_rev_at_epoch": 60120,
        "meta_bstar": 0.0030950402,
        "meta_mean_motion_dot": 0.00014065,
        "meta_mean_motion_ddot": 0,
        "tle_line1": "1 39777U 97051AAJ 25342.27774100  .00014065  00000+0  30950-2 0  9993",
        "tle_line2": "2 39777  85.9620 177.2086 0059835 201.8798 157.9853 14.56263491601209"
      },
      "geometry": {
        "type": "Point",
        "coordinates": [
          10.1078760292838,
          -72.71719227105271
        ]
      }
    },
    {
      "type": "Feature",
      "properties": {
        "norad_id": 39778,
        "name": "IRIDIUM 33 DEB",
        "group": "iridium-33-debris",
        "lat": 61.6292682663324,
        "lon": -141.77350133684817,
        "alt_km": 703.4243109075151,
        "timestamp": "2025-12-08T17:43:05.322434+00:00",
        "meta_object_name": "IRIDIUM 33 DEB",
        "meta_object_id": "1997-051AAK",
        "meta_epoch": "2025-12-07T14:45:16.913376",
        "meta_mean_motion": 14.54208544,
        "meta_eccentricity": 0.00084995,
        "meta_inclination": 86.3778,
        "meta_ra_of_asc_node": 45.4502,
        "meta_arg_of_pericenter": 56.9832,
        "meta_mean_anomaly": 303.219,
        "meta_ephemeris_type": 0,
        "meta_classification_type": "U",
        "meta_norad_cat_id": 39778,
        "meta_element_set_no": 999,
        "meta_rev_at_epoch": 60618,
        "meta_bstar": 0.0015411039,
        "meta_mean_motion_dot": 6.547e-05,
        "meta_mean_motion_ddot": 0,
        "tle_line1": "1 39778U 97051AAK 25341.61477909  .00006547  00000+0  15411-2 0  9999",
        "tle_line2": "2 39778  86.3778  45.4502 0008499  56.9832 303.2190 14.54208544606184"
      },
      "geometry": {
        "type": "Point",
        "coordinates": [
          -141.77350133684817,
          61.6292682663324
        ]
      }
    },
    {
      "type": "Feature",
      "properties": {
        "norad_id": 39781,
        "name": "IRIDIUM 33 DEB",
        "group": "iridium-33-debris",
        "lat": 0.3370146629496412,
        "lon": -100.35069357405295,
        "alt_km": 790.2260026742542,
        "timestamp": "2025-12-08T17:43:05.322445+00:00",
        "meta_object_name": "IRIDIUM 33 DEB",
        "meta_object_id": "1997-051AAN",
        "meta_epoch": "2025-12-08T00:53:08.261952",
        "meta_mean_motion": 14.20419658,
        "meta_eccentricity": 0.01788839,
        "meta_inclination": 86.3691,
        "meta_ra_of_asc_node": 259.9169,
        "meta_arg_of_pericenter": 288.2181,
        "meta_mean_anomaly": 86.0915,
        "meta_ephemeris_type": 0,
        "meta_classification_type": "U",
        "meta_norad_cat_id": 39781,
        "meta_element_set_no": 999,
        "meta_rev_at_epoch": 8040,
        "meta_bstar": 0.0072666805,
        "meta_mean_motion_dot": 0.00018344,
        "meta_mean_motion_ddot": 0,
        "tle_line1": "1 39781U 97051AAN 25342.03690118  .00018344  00000+0  72667-2 0  9993",
        "tle_line2": "2 39781  86.3691 259.9169 0178883 288.2181  86.0915 14.20419658 80400"
      },
      "geometry": {
        "type": "Point",
        "coordinates": [
          -100.35069357405295,
          0.3370146629496412
        ]
      }
    },
    {
      "type": "Feature",
      "properties": {
        "norad_id": 39783,
        "name": "IRIDIUM 33 DEB",
        "group": "iridium-33-debris",
        "lat": 42.60412140939663,
        "lon": 73.79726939299127,
        "alt_km": 465.9909167120495,
        "timestamp": "2025-12-08T17:43:05.322455+00:00",
        "meta_object_name": "IRIDIUM 33 DEB",
        "meta_object_id": "1997-051AAQ",
        "meta_epoch": "2025-11-16T15:05:40.850592",
        "meta_mean_motion": 15.19327111,
        "meta_eccentricity": 0.00057535,
        "meta_inclination": 86.1306,
        "meta_ra_of_asc_node": 268.8004,
        "meta_arg_of_pericenter": 179.9151,
        "meta_mean_anomaly": 1.8316,
        "meta_ephemeris_type": 0,
        "meta_classification_type": "U",
        "meta_norad_cat_id": 39783,
        "meta_element_set_no": 999,
        "meta_rev_at_epoch": 60401,
        "meta_bstar": 0.010398125,
        "meta_mean_motion_dot": 0.00226179,
        "meta_mean_motion_ddot": 0,
        "tle_line1": "1 39783U 97051AAQ 25320.62894503  .00226179  00000+0  10398-1 0  9999",
        "tle_line2": "2 39783  86.1306 268.8004 0005753 179.9151   1.8316 15.19327111604018"
      },
      "geometry": {
        "type": "Point",
        "coordinates": [
          73.79726939299127,
          42.60412140939663
        ]
      }
    },
    {
      "type": "Feature",
      "properties": {
        "norad_id": 40996,
        "name": "IRIDIUM 33 DEB",
        "group": "iridium-33-debris",
        "lat": 20.61845305092481,
        "lon": -178.09421845423523,
        "alt_km": 580.3135159477151,
        "timestamp": "2025-12-08T17:43:05.322466+00:00",
        "meta_object_name": "IRIDIUM 33 DEB",
        "meta_object_id": "1997-051ABJ",
        "meta_epoch": "2025-12-02T08:31:11.979264",
        "meta_mean_motion": 14.95250831,
        "meta_eccentricity": 0.00120962,
        "meta_inclination": 86.3524,
        "meta_ra_of_asc_node": 6.2584,
        "meta_arg_of_pericenter": 92.2467,
        "meta_mean_anomaly": 284.2756,
        "meta_ephemeris_type": 0,
        "meta_classification_type": "U",
        "meta_norad_cat_id": 40996,
        "meta_element_set_no": 999,
        "meta_rev_at_epoch": 62333,
        "meta_bstar": 0.0031243939,
        "meta_mean_motion_dot": 0.0003457,
        "meta_mean_motion_ddot": 0,
        "tle_line1": "1 40996U 97051ABJ 25336.35499976  .00034570  00000+0  31244-2 0  9995",
        "tle_line2": "2 40996  86.3524   6.2584 0012096  92.2467 284.2756 14.95250831623330"
      },
      "geometry": {
        "type": "Point",
        "coordinates": [
          -178.09421845423523,
          20.61845305092481
        ]
      }
    },
    {
      "type": "Feature",
      "properties": {
        "norad_id": 40998,
        "name": "IRIDIUM 33 DEB",
        "group": "iridium-33-debris",
        "lat": -86.30718058754377,
        "lon": -46.14431959517022,
        "alt_km": 756.0574531048533,
        "timestamp": "2025-12-08T17:43:05.322489+00:00",
        "meta_object_name": "IRIDIUM 33 DEB",
        "meta_object_id": "1997-051ABL",
        "meta_epoch": "2025-12-03T12:06:12.154176",
        "meta_mean_motion": 14.45043538,
        "meta_eccentricity": 0.00095708,
        "meta_inclination": 86.3836,
        "meta_ra_of_asc_node": 57.6004,
        "meta_arg_of_pericenter": 108.6038,
        "meta_mean_anomaly": 309.9308,
        "meta_ephemeris_type": 0,
        "meta_classification_type": "U",
        "meta_norad_cat_id": 40998,
        "meta_element_set_no": 999,
        "meta_rev_at_epoch": 6548,
        "meta_bstar": 0.00081638604,
        "meta_mean_motion_dot": 2.87e-05,
        "meta_mean_motion_ddot": 0,
        "tle_line1": "1 40998U 97051ABL 25337.50430734  .00002870  00000+0  81639-3 0  9994",
        "tle_line2": "2 40998  86.3836  57.6004 0009570 108.6038 309.9308 14.45043538 65487"
      },
      "geometry": {
        "type": "Point",
        "coordinates": [
          -46.14431959517022,
          -86.30718058754377
        ]
      }
    }
  ]
}